ONEWEB-0289             
1 49079U 21075E   24044.61000562  .00000000  00000+0 -32927-4 0  9995
2 49079  87.9249 175.8500 0001807 102.1043 258.0291 13.17647584121662
ONEWEB-0290             
1 49080U 21075F   24044.59259469  .00000060  00000+0  12103-3 0  9994
2 49080  87.9247 175.8169 0001172  91.0420 269.0846 13.17648012121073
ONEWEB-0291             
1 49081U 21075G   24044.42490727 -.00000176  00000+0 -48596-3 0  9996
2 49081  87.9242 175.8773 0001244 105.2187 254.9082 13.17649157121041
ONEWEB-0293             
1 49082U 21075H   24044.60208529  .00000035  00000+0  56467-4 0  9993
2 49082  87.9248 175.8496 0001324  99.0595 261.0686 13.17647835121097
ONEWEB-0294             
1 49083U 21075J   24044.55680710  .00000183  00000+0  47302-3 0  9995
2 49083  87.9039 160.7332 0000977  94.9917 265.1323 13.12443684122470
ONEWEB-0295             
1 49084U 21075K   24044.60367955 -.00000103  00000+0 -29964-3 0  9993
2 49084  87.9250 175.8250 0001176 118.0632 242.0619 13.17649344121057
ONEWEB-0296             
1 49085U 21075L   24044.61557785  .00000513  00000+0  13906-2 0  9998
2 49085  87.9042 160.7205 0000863 122.1303 237.9909 13.12442978122485
ONEWEB-0297             
1 49086U 21075M   24044.57109040 -.00000283  00000+0 -82123-3 0  9995
2 49086  87.9049 160.7269 0001741 109.6178 250.5138 13.12442781123083
